[{"OBJECT_NAME":"JILIN-1 GAOFEN 03D47","OBJECT_ID":"2022-167L","EPOCH":"2026-03-09T22:56:46.924224","MEAN_MOTION":15.31686941,"ECCENTRICITY":0.00089304,"INCLINATION":97.6835,"RA_OF_ASC_NODE":234.6581,"ARG_OF_PERICENTER":110.4031,"MEAN_ANOMALY":249.8169,"EPHEMERIS_TYPE":0,"CLASSIFICATION_TYPE":"U","NORAD_CAT_ID":54692,"ELEMENT_SET_NO":999,"REV_AT_EPOCH":18014,"BSTAR":0.00047294748,"MEAN_MOTION_DOT":0.00014417,"MEAN_MOTION_DDOT":0},{"OBJECT_NAME":"STARLINK-34284","OBJECT_ID":"2025-117K","EPOCH":"2026-03-09T21:50:02.114880","MEAN_MOTION":15.30215777,"ECCENTRICITY":0.00015448,"INCLINATION":53.1609,"RA_OF_ASC_NODE":38.2776,"ARG_OF_PERICENTER":79.1308,"MEAN_ANOMALY":280.9867,"EPHEMERIS_TYPE":0,"CLASSIFICATION_TYPE":"U","NORAD_CAT_ID":64212,"ELEMENT_SET_NO":999,"REV_AT_EPOCH":4456,"BSTAR":0.0013720202,"MEAN_MOTION_DOT":0.00040518,"MEAN_MOTION_DDOT":0}]
